OBJECT_NAME,OBJECT_ID,EPOCH,MEAN_MOTION,ECCENTRICITY,INCLINATION,RA_OF_ASC_NODE,ARG_OF_PERICENTER,MEAN_ANOMALY,EPHEMERIS_TYPE,CLASSIFICATION_TYPE,NORAD_CAT_ID,ELEMENT_SET_NO,REV_AT_EPOCH,BSTAR,MEAN_MOTION_DOT,MEAN_MOTION_DDOT
GALAXY 34 (G-34),2022-128B,2026-07-08T16:34:03.223776,1.00272678,.00014397,0.0201,25.9532,97.0196,283.1943,0,U,54027,999,1412,0,0,0
ANGOSAT 2,2022-131A,2026-07-08T18:56:28.430016,1.00272726,.00000879,0.0245,119.3485,143.6057,330.9025,0,U,54033,999,1369,0,.15E-5,0
EUTELSAT HOTBIRD 13F,2022-134A,2026-07-08T21:05:38.650848,1.00271134,.00019684,0.0532,286.9638,69.2794,260.0007,0,U,54048,999,1359,0,.101E-5,0
LDPE-2,2022-144A,2026-07-08T16:40:10.282944,1.00541724,.00024116,5.6618,63.4696,108.0090,228.3081,0,U,54219,999,1205,0,.73E-6,0
EUTELSAT HOTBIRD 13G,2022-146A,2026-07-08T20:36:08.448768,1.00270397,.00020457,0.0527,220.5643,321.6004,66.6758,0,U,54225,999,768,0,.101E-5,0
ZHONGXING-19,2022-148A,2026-07-08T21:19:06.149568,1.00270629,.00029802,0.0338,264.7664,230.9363,274.1029,0,U,54230,999,1359,0,-.67E-6,0
GALAXY 31 (G-31),2022-153A,2026-07-08T14:50:10.358880,1.00271859,.00011104,0.0141,24.1780,92.6414,271.2962,0,U,54243,999,734,0,0,0
GALAXY 32 (G-32),2022-153B,2026-07-08T20:06:40.334976,1.00271791,.00015757,0.0080,13.2899,35.0160,89.1494,0,U,54244,999,1336,0,-.16E-5,0
EUTELSAT 10B,2022-157A,2026-07-08T21:13:38.614944,1.00269208,.00019249,0.0592,96.2163,18.9286,140.0947,0,U,54259,999,1324,0,.82E-6,0
GALAXY 35 (G-35),2022-170A,2026-07-08T20:05:55.406976,1.00271030,.00020014,0.0164,284.8558,186.8746,23.4340,0,U,54741,999,1311,0,-.148E-5,0
GALAXY 36 (G-36),2022-170B,2026-07-08T20:07:02.798976,1.00272061,.00025093,0.0246,124.3121,333.3763,41.8600,0,U,54742,999,1299,0,-.171E-5,0
METEOSAT-12 (MTG-I1),2022-170C,2026-07-08T20:32:31.296192,1.00266696,.00039045,0.7182,18.5443,82.7457,133.4200,0,U,54743,999,1319,0,.6E-7,0
SHIJIAN-23 (SJ-23),2023-002A,2026-07-08T18:03:39.119904,1.00079819,.0003408,3.7695,78.0429,272.0280,341.1351,0,U,55131,999,1272,0,-.326E-5,0
APSTAR-6E,2023-005A,2026-07-08T21:10:51.938976,1.00272998,.00015216,0.0471,236.6340,329.5668,172.3628,0,U,55239,999,1890,0,-.303E-5,0
USA 342,2023-008A,2026-07-07T12:08:44.815200,1.00266819,.0000194,0.0041,358.8692,5.7709,126.9344,0,U,55263,999,1272,0,0,0
LDPE-3A,2023-008B,2026-07-08T21:19:06.149568,0.99151475,.00015284,2.4012,81.3990,74.9530,253.4889,0,U,55264,999,1202,0,-.233E-5,0
ELEKTRO-L 4,2023-016A,2026-07-08T17:50:07.486944,1.00272195,.00012027,0.1027,132.1737,45.5719,182.2572,0,U,55506,999,1254,0,-.44E-6,0
AMAZONAS NEXUS,2023-017A,2026-07-08T23:01:32.578176,1.00269045,.00045458,0.0333,38.4866,44.6083,128.2018,0,U,55508,999,726,0,-.268E-5,0
ZHONGXING-26,2023-023A,2026-07-09T14:14:51.582912,1.00265421,.0002905,0.0625,70.2841,32.5302,163.5048,0,U,55686,999,1245,0,-.341E-5,0
LUCH-5X (OLYMP-K 2),2023-031A,2026-07-08T12:16:55.785792,1.00273253,.0000929,0.0323,91.5942,148.3588,292.7082,0,U,55841,999,1215,0,.48E-6,0
GAOFEN-13 02,2023-036A,2026-07-08T14:03:13.332672,1.00276068,.00037223,1.0249,3.6850,339.5503,302.2528,0,U,55912,999,1230,0,-.204E-5,0
SES-18,2023-038A,2026-07-08T21:45:33.613056,1.00271592,.00005715,0.0527,265.5065,299.8328,304.8113,0,U,55970,999,1232,0,-.87E-6,0
SES-19,2023-038B,2026-07-08T18:11:31.164576,1.00271805,.0001706,0.0319,292.6269,185.2836,306.7746,0,U,55971,999,1230,0,.102E-5,0
INTELSAT 40E (IS-40E),2023-052A,2026-07-08T06:25:27.350688,1.00268946,.00023531,0.0205,50.4332,96.3576,144.7906,0,U,56174,999,1203,0,0,0
VIASAT-3 F1,2023-060A,2026-07-08T13:16:37.706880,1.00270250,.00010223,0.0179,15.4087,92.0261,289.2634,0,U,56370,999,1164,0,0,0
ARCTURUS,2023-060B,2026-07-08T20:58:45.600096,1.00597096,.00006553,2.8290,79.6716,138.0358,115.4376,0,U,56371,999,1167,0,-.285E-5,0
GS-1,2023-060C,2026-07-08T19:15:00.288288,1.00268510,.00035116,2.7799,79.5779,281.2971,304.0126,0,U,56372,999,775,0,-.211E-5,0
BEIDOU-3 G4,2023-066A,2026-07-06T07:36:57.282624,1.00266978,.00050564,0.4680,336.2679,178.9368,23.3032,0,U,56564,999,1158,0,-.268E-5,0
ARABSAT-7B (BADR-8),2023-075A,2026-07-08T20:57:38.465568,1.00272037,.00035431,0.0737,29.3520,0.7518,237.1285,0,U,56757,999,1133,0,.159E-5,0
NVS-01 (IRNSS-1J),2023-076A,2026-07-08T21:09:22.082976,1.00267947,.00033686,2.1177,243.3863,7.3672,122.9544,0,U,56759,999,1133,0,-.32E-5,0
NUSANTARA TIGA (SATRIA),2023-086A,2026-07-08T19:31:36.196896,1.00268505,.00023564,0.0344,4.9487,338.4809,22.2393,0,U,57045,999,997,0,-.221E-5,0
