GALAXY 34 (G-34)        
1 54027U 22128B   26189.69031509  .00000000  00000+0  00000+0 0  9990
2 54027   0.0201  25.9532 0001439  97.0196 283.1943  1.00272678 14129
ANGOSAT 2               
1 54033U 22131A   26189.78921794  .00000150  00000+0  00000+0 0  9991
2 54033   0.0245 119.3485 0000087 143.6057 330.9025  1.00272726 13698
EUTELSAT HOTBIRD 13F    
1 54048U 22134A   26189.87891957  .00000101  00000+0  00000+0 0  9993
2 54048   0.0532 286.9638 0001968  69.2794 260.0007  1.00271134 13598
LDPE-2                  
1 54219U 22144A   26189.69456346  .00000073  00000+0  00000+0 0  9991
2 54219   5.6618  63.4696 0002411 108.0090 228.3081  1.00541724 12055
EUTELSAT HOTBIRD 13G    
1 54225U 22146A   26189.85843112  .00000101  00000+0  00000+0 0  9991
2 54225   0.0527 220.5643 0002045 321.6004  66.6758  1.00270397  7681
ZHONGXING-19            
1 54230U 22148A   26189.88826562 -.00000067  00000+0  00000+0 0  9994
2 54230   0.0338 264.7664 0002980 230.9363 274.1029  1.00270629 13590
GALAXY 31 (G-31)        
1 54243U 22153A   26189.61817545  .00000000  00000+0  00000+0 0  9992
2 54243   0.0141  24.1780 0001110  92.6414 271.2962  1.00271859  7343
GALAXY 32 (G-32)        
1 54244U 22153B   26189.83796684 -.00000160  00000+0  00000+0 0  9995
2 54244   0.0080  13.2899 0001575  35.0160  89.1494  1.00271791 13360
EUTELSAT 10B            
1 54259U 22157A   26189.88447471  .00000082  00000+0  00000+0 0  9999
2 54259   0.0592  96.2163 0001924  18.9286 140.0947  1.00269208 13243
GALAXY 35 (G-35)        
1 54741U 22170A   26189.83744684 -.00000148  00000+0  00000+0 0  9995
2 54741   0.0164 284.8558 0002001 186.8746  23.4340  1.00271030 13113
GALAXY 36 (G-36)        
1 54742U 22170B   26189.83822684 -.00000171  00000+0  00000+0 0  9999
2 54742   0.0246 124.3121 0002509 333.3763  41.8600  1.00272061 12993
METEOSAT-12 (MTG-I1)    
1 54743U 22170C   26189.85591778  .00000006  00000+0  00000+0 0  9995
2 54743   0.7182  18.5443 0003904  82.7457 133.4200  1.00266696 13190
SHIJIAN-23 (SJ-23)      
1 55131U 23002A   26189.75253611 -.00000326  00000+0  00000+0 0  9998
2 55131   3.7695  78.0429 0003408 272.0280 341.1351  1.00079819 12728
APSTAR-6E               
1 55239U 23005A   26189.88254559 -.00000303  00000+0  00000+0 0  9991
2 55239   0.0471 236.6340 0001521 329.5668 172.3628  1.00272998 18905
USA 342                 
1 55263U 23008A   26188.50607425  .00000000  00000+0  00000+0 0  9996
2 55263   0.0041 358.8692 0000194   5.7709 126.9344  1.00266819 12725
LDPE-3A                 
1 55264U 23008B   26189.88826562 -.00000233  00000+0  00000+0 0  9993
2 55264   2.4012  81.3990 0001528  74.9530 253.4889  0.99151475 12022
ELEKTRO-L 4             
1 55506U 23016A   26189.74314221 -.00000044  00000+0  00000+0 0  9990
2 55506   0.1027 132.1737 0001202  45.5719 182.2572  1.00272195 12549
AMAZONAS NEXUS          
1 55508U 23017A   26189.95940484 -.00000268  00000+0  00000+0 0  9990
2 55508   0.0333  38.4866 0004545  44.6083 128.2018  1.00269045  7266
ZHONGXING-26            
1 55686U 23023A   26190.59365258 -.00000341  00000+0  00000+0 0  9998
2 55686   0.0625  70.2841 0002905  32.5302 163.5048  1.00265421 12458
LUCH-5X (OLYMP-K 2)     
1 55841U 23031A   26189.51175678  .00000048  00000+0  00000+0 0  9998
2 55841   0.0323  91.5942 0000929 148.3588 292.7082  1.00273253 12152
GAOFEN-13 02            
1 55912U 23036A   26189.58557098 -.00000204  00000+0  00000+0 0  9994
2 55912   1.0249   3.6850 0003722 339.5503 302.2528  1.00276068 12302
SES-18                  
1 55970U 23038A   26189.90663904 -.00000087  00000+0  00000+0 0  9999
2 55970   0.0527 265.5065 0000571 299.8328 304.8113  1.00271592 12320
SES-19                  
1 55971U 23038B   26189.75799959  .00000102  00000+0  00000+0 0  9990
2 55971   0.0319 292.6269 0001706 185.2836 306.7746  1.00271805 12308
INTELSAT 40E (IS-40E)   
1 56174U 23052A   26189.26767767  .00000000  00000+0  00000+0 0  9997
2 56174   0.0205  50.4332 0002353  96.3576 144.7906  1.00268946 12031
VIASAT-3 F1             
1 56370U 23060A   26189.55321420  .00000000  00000+0  00000+0 0  9998
2 56370   0.0179  15.4087 0001022  92.0261 289.2634  1.00270250 11643
ARCTURUS                
1 56371U 23060B   26189.87413889 -.00000285  00000+0  00000+0 0  9991
2 56371   2.8290  79.6716 0000655 138.0358 115.4376  1.00597096 11674
GS-1                    
1 56372U 23060C   26189.80208667 -.00000211  00000+0  00000+0 0  9990
2 56372   2.7799  79.5779 0003511 281.2971 304.0126  1.00268510  7751
BEIDOU-3 G4             
1 56564U 23066A   26187.31732966 -.00000268  00000+0  00000+0 0  9999
2 56564   0.4680 336.2679 0005056 178.9368  23.3032  1.00266978 11587
ARABSAT-7B (BADR-8)     
1 56757U 23075A   26189.87336187  .00000159  00000+0  00000+0 0  9999
2 56757   0.0737  29.3520 0003543   0.7518 237.1285  1.00272037 11334
NVS-01 (IRNSS-1J)       
1 56759U 23076A   26189.88150559 -.00000320  00000+0  00000+0 0  9991
2 56759   2.1177 243.3863 0003368   7.3672 122.9544  1.00267947 11337
NUSANTARA TIGA (SATRIA) 
1 57045U 23086A   26189.81361339 -.00000221  00000+0  00000+0 0  9994
2 57045   0.0344   4.9487 0002356 338.4809  22.2393  1.00268505  9970
